{"version": 0.6, "generator": "Overpass API 0.7.62.5 1bd436f1", "osm3s": {"timestamp_osm_base": "2025-05-10T09:03:36Z", "copyright": "The data included in this document is from www.openstreetmap.org. The data is made available under ODbL."}, "elements": [{"type": "node", "id": 4449910691, "lat": 35.6830719, "lon": 139.7580866, "tags": {"name:en": "Gardens Free Guided Tour", "tourism": "attraction"}}, {"type": "node", "id": 4646514992, "lat": 35.6805476, "lon": 139.7680781, "tags": {"amenity": "food_court", "name": "\u6771\u4eac\u30e9\u30fc\u30e1\u30f3\u30b9\u30c8\u30ea\u30fc\u30c8", "name:en": "Tokyo Ramen Street", "name:ja": "\u6771\u4eac\u30e9\u30fc\u30e1\u30f3\u30b9\u30c8\u30ea\u30fc\u30c8", "name:zh": "\u6771\u4eac\u62c9\u9eb5\u8857", "tourism": "attraction", "website": "https://www.tokyoeki-1bangai.co.jp/street/ramen/", "wheelchair": "yes", "wikidata": "Q11524461", "wikipedia": "ja:\u6771\u4eac\u30e9\u30fc\u30e1\u30f3\u30b9\u30c8\u30ea\u30fc\u30c8"}}, {"type": "node", "id": 5147139423, "lat": 35.6974253, "lon": 139.772526, "tags": {"name": "Clone Factory (Build a replica of yourself)", "tourism": "attraction"}}, {"type": "node", "id": 5265486349, "lat": 35.6969549, "lon": 139.7711133}, {"type": "node", "id": 5265486350, "lat": 35.6973103, "lon": 139.7708329}, {"type": "node", "id": 5265486351, "lat": 35.6970888, "lon": 139.7707466}, {"type": "node", "id": 5265486352, "lat": 35.6971764, "lon": 139.7711993}, {"type": "node", "id": 5292835775, "lat": 35.7015606, "lon": 139.7679825, "tags": {"name": "\u3055\u3056\u308c\u77f3", "natural": "stone", "tourism": "attraction"}}, {"type": "node", "id": 5403391605, "lat": 35.69586, "lon": 139.7586067, "tags": {"alt_name": "\u795e\u4fdd\u753a\u53e4\u66f8\u8857", "name": "\u795e\u7530\u53e4\u66f8\u5e97\u8857", "name:en": "Kanda Book Town", "name:es": "Ciudad del libro Kanda", "name:ja": "\u795e\u7530\u53e4\u66f8\u5e97\u8857", "name:zh": "\u795e\u4fdd\u753a\u53e4\u66f8\u8857", "tourism": "attraction", "wikidata": "Q10445002", "wikimedia_commons": "Category:Second-hand bookshops in Kanda-Jinbocho", "wikipedia": "ja:\u795e\u7530\u53e4\u66f8\u5e97\u8857"}}, {"type": "node", "id": 5439434433, "lat": 35.6772124, "lon": 139.7478515, "tags": {"man_made": "survey_point", "name": "\u6a19\u6e96\u6c34\u6e96\u70b9", "name:en": "Japanese Datum of Lebeling", "tourism": "attraction"}}, {"type": "node", "id": 5603040005, "lat": 35.679007, "lon": 139.765747, "tags": {"name": "\u306f\u3068\u30d0\u30b9\u6771\u4eac\u55b6\u696d\u6240", "tourism": "attraction"}}, {"type": "node", "id": 5808073053, "lat": 35.6873627, "lon": 139.7553982, "tags": {"historic": "ruins", "historic:civilization": "medieval", "name": "\u5927\u5965\u8de1", "name:en": "Site of \u014coku", "name:es": "Sitio de \u014coku", "name:ja": "\u5927\u5965\u8de1", "name:ko": "\uc624\uc624\ucfe0 \ud130", "name:zh": "\u5927\u5967\u907a\u5740", "tourism": "attraction", "wikidata": "Q1064983", "wikipedia": "ja:\u5927\u5965"}}, {"type": "node", "id": 6127216118, "lat": 35.6745536, "lon": 139.7596546, "tags": {"name:en": "Hibiya Subway Exit A9-2", "tourism": "attraction"}}, {"type": "node", "id": 6309003796, "lat": 35.6922741, "lon": 139.7474966, "tags": {"name:en": "Cherry Blossom Viewing", "tourism": "attraction"}}, {"type": "node", "id": 6319618885, "lat": 35.676686, "lon": 139.7644506, "tags": {"name:en": "Tokyo International forum", "tourism": "attraction"}}, {"type": "node", "id": 6350139786, "lat": 35.6827329, "lon": 139.7687319, "tags": {"name": "Kitchen Street", "tourism": "attraction"}}, {"type": "node", "id": 6981927885, "lat": 35.6733202, "lon": 139.7626088, "tags": {"name:en": "Mullion Musical Clock", "tourism": "attraction"}}, {"type": "node", "id": 7106414685, "lat": 35.6918562, "lon": 139.7682069, "tags": {"name": "VR\u5fcd\u8005\u9053\u5834", "tourism": "attraction"}}, {"type": "node", "id": 8995417645, "lat": 35.6975133, "lon": 139.7695765, "tags": {"name": "\u4e07\u4e16\u6a4b\u99c5 \u8de1\u5730", "tourism": "attraction", "wheelchair": "yes"}}, {"type": "node", "id": 9893255120, "lat": 35.6915374, "lon": 139.7701624, "tags": {"name": "\u30de\u30f3\u30dc\u30fc\u6f2b\u753b\u55ab\u8336", "tourism": "attraction"}}, {"type": "node", "id": 9893255121, "lat": 35.6915961, "lon": 139.7701879, "tags": {"name": "\u30de\u30f3\u30dc\u30fc\u6f2b\u753b\u55ab\u8336 \u51fa\u53e3(\u897f\u53e3)", "tourism": "attraction"}}, {"type": "node", "id": 10799656705, "lat": 35.6992152, "lon": 139.7709513, "tags": {"addr:postcode": "102-0000", "internet_access": "wlan", "name:en": "RETRO:G Retro Games (GiGO 6F)", "opening_hours": "Mo-Su 10:00-23:30", "phone": "+81 70 1458 2284", "tourism": "attraction", "website": "https://tempo.gendagigo.jp/retrog/"}}, {"type": "node", "id": 11279681706, "lat": 35.7005422, "lon": 139.7716248, "tags": {"description": "Also check the minor roads west of here!", "name": "Akihabara (Manga, Anime, Electronics, Freaks, etc.)", "tourism": "attraction"}}, {"type": "node", "id": 12318738602, "lat": 35.6735636, "lon": 139.7624539, "tags": {"name": "\u30b3\u30cb\u30ab\u30df\u30ce\u30eb\u30bf \u30d7\u30e9\u30cd\u30bf\u30ea\u30a2", "tourism": "attraction", "website": "https://planetarium.konicaminolta.jp/planetariatokyo/", "wheelchair": "yes"}}, {"type": "node", "id": 12531890023, "lat": 35.6820505, "lon": 139.7685079}, {"type": "node", "id": 12570989709, "lat": 35.6811654, "lon": 139.7681682}, {"type": "node", "id": 12574473767, "lat": 35.6826854, "lon": 139.7689937}, {"type": "node", "id": 12574473768, "lat": 35.6827151, "lon": 139.7688698}, {"type": "node", "id": 12574473769, "lat": 35.6820284, "lon": 139.7686023}, {"type": "node", "id": 12574473770, "lat": 35.6820894, "lon": 139.7685234}, {"type": "node", "id": 12574473771, "lat": 35.6827402, "lon": 139.768768}, {"type": "node", "id": 12578195325, "lat": 35.6815971, "lon": 139.7683339}, {"type": "node", "id": 12606700702, "lat": 35.6828884, "lon": 139.765645, "tags": {"name": "Cat face facade", "tourism": "attraction"}}, {"type": "node", "id": 12659363205, "lat": 35.6821874, "lon": 139.7685602}, {"type": "node", "id": 12659363208, "lat": 35.6819441, "lon": 139.768467}, {"type": "way", "id": 544733763, "nodes": [5265486349, 5265486352, 5265486350, 5265486351, 5265486349], "tags": {"bridge": "yes", "layer": "1", "man_made": "bridge", "name": "\u4e07\u4e16\u6a4b", "name:en": "Mansei Bridge", "name:es": "Puente Mansei", "name:ja": "\u4e07\u4e16\u6a4b", "name:ja_kana": "\u307e\u3093\u305b\u3044\u3070\u3057", "name:ja_rm": "mansei bashi", "name:ko": "\ub9cc\uc138\uc774\ubc14\uc2dc", "name:zh": "\u842c\u4e16\u6a4b", "tourism": "attraction", "wikidata": "Q2913480", "wikimedia_commons": "Category:Mansei Bridge", "wikipedia": "ja:\u4e07\u4e16\u6a4b"}}, {"type": "way", "id": 1358679892, "nodes": [12574473767, 12574473768, 12574473769, 12531890023], "tags": {"foot": "permissive", "highway": "footway", "layer": "-1", "name": "Tokyo Character Street", "name:ja": "\u6771\u4eac\u30ad\u30e3\u30e9\u30af\u30bf\u30fc\u30b9\u30c8\u30ea\u30fc\u30c8", "tourism": "attraction", "tunnel": "building_passage"}}, {"type": "way", "id": 1358679893, "nodes": [12574473768, 12574473771, 12659363205, 12574473770], "tags": {"foot": "permissive", "highway": "footway", "layer": "-1", "name": "Tokyo Character Street", "name:ja": "\u6771\u4eac\u30ad\u30e3\u30e9\u30af\u30bf\u30fc\u30b9\u30c8\u30ea\u30fc\u30c8", "tourism": "attraction", "tunnel": "building_passage"}}, {"type": "way", "id": 1361973679, "nodes": [12570989709, 12578195325, 12659363208, 12531890023], "tags": {"foot": "permissive", "highway": "footway", "layer": "-1", "name": "Tokyo Character Street", "name:ja": "\u6771\u4eac\u30ad\u30e3\u30e9\u30af\u30bf\u30fc\u30b9\u30c8\u30ea\u30fc\u30c8", "tourism": "attraction", "tunnel": "building_passage"}}]}