{"version": 0.6, "generator": "Overpass API 0.7.62.5 1bd436f1", "osm3s": {"timestamp_osm_base": "2025-05-10T06:38:00Z", "copyright": "The data included in this document is from www.openstreetmap.org. The data is made available under ODbL."}, "elements": [{"type": "node", "id": 4165484098, "lat": 35.7082202, "lon": 139.7742278, "tags": {"name": "Restaurants Sushi e Cenas", "tourism": "attraction"}}, {"type": "node", "id": 4496960001, "lat": 35.7100592, "lon": 139.7745428, "tags": {"contact:facebook": "ameyoko.jp", "contact:tripadvisor": "553808", "contact:twitter": "ameyoko", "contact:website": "https://www.ameyoko.net/", "name": "\u30a2\u30e1\u30e4\u6a2a\u4e01", "name:en": "Ameya-Yokoch\u014d", "name:fr": "Ameya-Yokoch\u014d", "name:ja-Hira": "\u30a2\u30e1\u30e4\u3088\u3053\u3061\u3087\u3046", "name:ja-Latn": "Ameya-Yokoch\u014d", "name:zh": "\u963f\u7f8e\u6a6b\u753a", "short_name": "\u30a2\u30e1\u6a2a", "short_name:ja-Hira": "\u30a2\u30e1\u3088\u3053", "short_name:ja-Latn": "Ameyoko", "tourism": "attraction", "wheelchair": "yes", "wikidata": "Q864815", "wikimedia_commons": "Category:Ameya-yokocho", "wikipedia": "ja:\u30a2\u30e1\u30e4\u6a2a\u4e01"}}, {"type": "node", "id": 4670288696, "lat": 35.7097123, "lon": 139.7743577, "tags": {"name": "\u963f\u7f8e\u6a6b\u4e01", "name:en": "Ami Yokocho", "name:ja": "\u963f\u7f8e\u6a6b\u4e01", "tourism": "attraction", "wheelchair": "limited"}}, {"type": "node", "id": 5793910853, "lat": 35.7089093, "lon": 139.7747832, "tags": {"name:en": "Ame Yocco Market", "tourism": "attraction"}}, {"type": "node", "id": 6346685086, "lat": 35.7081654, "lon": 139.7746873, "tags": {"name": "Silk Road cosmetic Ueno", "tourism": "attraction"}}, {"type": "node", "id": 7132391747, "lat": 35.7030232, "lon": 139.7741519, "tags": {"name": "\u84b8\u6c17\u6a5f\u95a2\u8eca\u7528\u300c\u6c7d\u7b1b\u300d", "source": "survey", "tourism": "attraction"}}, {"type": "node", "id": 7175752589, "lat": 35.7114931, "lon": 139.7747862, "tags": {"name": "Ameyoko Market Street", "tourism": "attraction"}}, {"type": "node", "id": 8244209017, "lat": 35.7097249, "lon": 139.7748375, "tags": {"name:fr": "March\u00e9 Ameya Yokocho", "tourism": "attraction"}}, {"type": "node", "id": 10692944607, "lat": 35.708804, "lon": 139.774138, "tags": {"brand": "\u30bf\u30a4\u30c8\u30fc\u30b9\u30c6\u30fc\u30b7\u30e7\u30f3", "brand:en": "Taito Station", "brand:ja": "\u30bf\u30a4\u30c8\u30fc\u30b9\u30c6\u30fc\u30b7\u30e7\u30f3", "brand:wikidata": "Q1054844", "leisure": "amusement_arcade", "name": "\u30bf\u30a4\u30c8\u30fc\u30b9\u30c6\u30fc\u30b7\u30e7\u30f3", "name:en": "Taito Station", "name:ja": "\u30bf\u30a4\u30c8\u30fc\u30b9\u30c6\u30fc\u30b7\u30e7\u30f3", "tourism": "attraction"}}]}