{"version": 0.6, "generator": "Overpass API 0.7.62.5 1bd436f1", "osm3s": {"timestamp_osm_base": "2025-05-10T06:32:53Z", "copyright": "The data included in this document is from www.openstreetmap.org. The data is made available under ODbL."}, "elements": [{"type": "node", "id": 252675438, "lat": 35.6620432, "lon": 139.6935718, "tags": {"name": "\u89b3\u4e16\u80fd\u697d\u5802", "name:en": "Kanze No Theater", "tourism": "attraction"}}, {"type": "node", "id": 1681663783, "lat": 35.6593346, "lon": 139.7002953}, {"type": "node", "id": 1681663785, "lat": 35.659353, "lon": 139.7006276}, {"type": "node", "id": 1681663805, "lat": 35.6593856, "lon": 139.7006796}, {"type": "node", "id": 1986321884, "lat": 35.6827125, "lon": 139.709942}, {"type": "node", "id": 1986321886, "lat": 35.6827216, "lon": 139.709804}, {"type": "node", "id": 2223657295, "lat": 35.6593767, "lon": 139.7006562}, {"type": "node", "id": 2223657334, "lat": 35.6596031, "lon": 139.7003822}, {"type": "node", "id": 2223657338, "lat": 35.6596031, "lon": 139.7004055}, {"type": "node", "id": 2223657341, "lat": 35.6596179, "lon": 139.7004627}, {"type": "node", "id": 2223657344, "lat": 35.6596295, "lon": 139.7003666}, {"type": "node", "id": 2223657352, "lat": 35.6596443, "lon": 139.7005225}, {"type": "node", "id": 2223657354, "lat": 35.6596718, "lon": 139.7005524}, {"type": "node", "id": 2223657356, "lat": 35.6596971, "lon": 139.7003393}, {"type": "node", "id": 2223657358, "lat": 35.6597611, "lon": 139.7002563}, {"type": "node", "id": 2376711364, "lat": 35.647236, "lon": 139.701573, "tags": {"name": "\u65e7\u671d\u5009\u5bb6\u4f4f\u5b85", "name:en": "Former Asakura House", "tourism": "attraction"}}, {"type": "node", "id": 3608568701, "lat": 35.6593116, "lon": 139.7006057}, {"type": "node", "id": 3608568702, "lat": 35.6593577, "lon": 139.7002969}, {"type": "node", "id": 3608568703, "lat": 35.659364, "lon": 139.7002964}, {"type": "node", "id": 3608568704, "lat": 35.6593763, "lon": 139.7002949}, {"type": "node", "id": 3608568705, "lat": 35.6593874, "lon": 139.7007538}, {"type": "node", "id": 3608568707, "lat": 35.6594011, "lon": 139.7002838}, {"type": "node", "id": 3608568710, "lat": 35.6594259, "lon": 139.7002605}, {"type": "node", "id": 3608568712, "lat": 35.6594414, "lon": 139.7002262}, {"type": "node", "id": 3608568714, "lat": 35.6594464, "lon": 139.7002046}, {"type": "node", "id": 3608568715, "lat": 35.6594493, "lon": 139.7001898}, {"type": "node", "id": 3608568725, "lat": 35.6595302, "lon": 139.7007924}, {"type": "node", "id": 3608568726, "lat": 35.6595341, "lon": 139.7007797}, {"type": "node", "id": 3608568727, "lat": 35.6595426, "lon": 139.7007571}, {"type": "node", "id": 3608568728, "lat": 35.6595593, "lon": 139.7007335}, {"type": "node", "id": 3608568729, "lat": 35.6595777, "lon": 139.7007188}, {"type": "node", "id": 3608568730, "lat": 35.6595972, "lon": 139.7007125}, {"type": "node", "id": 3608568732, "lat": 35.6596031, "lon": 139.7002431}, {"type": "node", "id": 3608568734, "lat": 35.6596065, "lon": 139.7002817}, {"type": "node", "id": 3608568736, "lat": 35.6596159, "lon": 139.700709}, {"type": "node", "id": 3608568737, "lat": 35.6596161, "lon": 139.7002939}, {"type": "node", "id": 3608568740, "lat": 35.6596265, "lon": 139.7002998}, {"type": "node", "id": 3608568741, "lat": 35.6596334, "lon": 139.7007115}, {"type": "node", "id": 3608568744, "lat": 35.6596451, "lon": 139.7007147}, {"type": "node", "id": 3608568745, "lat": 35.6596531, "lon": 139.7002944}, {"type": "node", "id": 3608568753, "lat": 35.6596898, "lon": 139.7002705}, {"type": "node", "id": 3608568756, "lat": 35.6596908, "lon": 139.7007272}, {"type": "node", "id": 3608568760, "lat": 35.6597637, "lon": 139.7001805}, {"type": "node", "id": 4439022201, "lat": 35.6696183, "lon": 139.7088172, "tags": {"name:en": "Street art \"Now Is Forever\"", "tourism": "attraction"}}, {"type": "node", "id": 4460646696, "lat": 35.6673035, "lon": 139.7042469, "tags": {"name:en": "Alice on Wednesday", "opening_hours": "Mo-Su 11:00-20:00", "phone": "0364279868", "tourism": "attraction", "website": "https://www.aliceonwednesday.jp/"}}, {"type": "node", "id": 4484956591, "lat": 35.6740126, "lon": 139.7012246}, {"type": "node", "id": 4492209190, "lat": 35.6698609, "lon": 139.7023218}, {"type": "node", "id": 4641692417, "lat": 35.674175, "lon": 139.7012152}, {"type": "node", "id": 4784287722, "lat": 35.6754882, "lon": 139.6973748, "tags": {"name:en": "Meiji Jing\u016b Forest", "name:signed": "no", "tourism": "attraction"}}, {"type": "node", "id": 4803759626, "lat": 35.6628143, "lon": 139.709538, "tags": {"addr:street": "Japan, \u3012150-0001 T\u014dky\u014d-to, Shibuya-ku, Jing\u016bmae, 5 Chome\u221251, \u6771\u4eac\u90fd\u6e0b\u8c37\u533a\u795e\u5bae\u524d\uff15\u4e01\u76ee\uff15\uff11\uff0d\uff18", "name": "La Porte Aoyama", "name:ja": "La Porte Aoyama", "tourism": "attraction"}}, {"type": "node", "id": 4841478823, "lat": 35.6599334, "lon": 139.7020353, "tags": {"name": "Taito Station Shibuya", "name:en": "Taito Station Shibuya", "name:ja": "Taito Station Shibuya", "tourism": "attraction"}}, {"type": "node", "id": 4899711029, "lat": 35.6487983, "lon": 139.7015874, "tags": {"name:en": "Daikanyama neighborhood", "tourism": "attraction"}}, {"type": "node", "id": 5080878021, "lat": 35.671342, "lon": 139.704565, "tags": {"name:en": "Happy Hearts", "tourism": "attraction"}}, {"type": "node", "id": 5342859168, "lat": 35.6698421, "lon": 139.702538}, {"type": "node", "id": 5342859169, "lat": 35.6695749, "lon": 139.7025028}, {"type": "node", "id": 5342859170, "lat": 35.6695937, "lon": 139.7022866}, {"type": "node", "id": 5537282825, "lat": 35.6690741, "lon": 139.7011219, "tags": {"name:en": "Yoyogi Park Rockers", "opening_hours": "Su 00:00-24:00", "tourism": "attraction"}}, {"type": "node", "id": 5920275585, "lat": 35.6711253, "lon": 139.6982773, "tags": {"name": "\u30d0\u30fc\u30c9\u30b5\u30f3\u30af\u30c1\u30e5\u30a2\u30ea", "name:en": "bird watching", "name:es": "Vistazo a las aves", "tourism": "attraction"}}, {"type": "node", "id": 6127216099, "lat": 35.6427745, "lon": 139.713476, "tags": {"name:en": "Yebisu Garden Place Winter Illumination", "tourism": "attraction"}}, {"type": "node", "id": 6127216100, "lat": 35.6673218, "lon": 139.7080856, "tags": {"name:en": "Omotesando Dori Winter Illumination", "tourism": "attraction"}}, {"type": "node", "id": 6127218492, "lat": 35.6868199, "lon": 139.7004528, "tags": {"name:en": "Shinjuku Southern Terrace Winter Illumination", "tourism": "attraction"}}, {"type": "node", "id": 6127218493, "lat": 35.6660655, "lon": 139.6982005, "tags": {"name:en": "Shibuya Blue Cave Winter Illumination", "tourism": "attraction"}}, {"type": "node", "id": 6141493996, "lat": 35.6716343, "lon": 139.7032967, "tags": {"name": "Laser Trap Harajuku", "tourism": "attraction"}}, {"type": "node", "id": 6199655893, "lat": 35.6736842, "lon": 139.7019092, "tags": {"name": "\u5949\u732e\u9152\u6a3d", "name:en": "Barrels of Sake Wrapped in Straw", "name:fr": "Ballots de Sak\u00e9", "tourism": "attraction"}}, {"type": "node", "id": 6222818680, "lat": 35.6593672, "lon": 139.6985057, "tags": {"name": "\u6e0b\u8c37\u99c5 A0", "name:en": "Exit A0", "railway": "subway_entrance", "ref": "A0", "source": "knowledge", "tourism": "attraction", "was:ref": "1"}}, {"type": "node", "id": 6340053385, "lat": 35.6709419, "lon": 139.7023936, "tags": {"name": "Harajuku Station", "tourism": "attraction"}}, {"type": "node", "id": 6618323185, "lat": 35.6736541, "lon": 139.7017042, "tags": {"name": "\u5949\u732e\u8461\u8404\u9152\u6a3d", "name:en": "Barrels of French Bourgogne wine", "name:fr": "Tonneaux de vin de Bourgogne", "tourism": "attraction"}}, {"type": "node", "id": 6861499285, "lat": 35.6710162, "lon": 139.7079177, "tags": {"name:en": "Harajuku Street", "tourism": "attraction"}}, {"type": "node", "id": 8007279076, "lat": 35.6593904, "lon": 139.7007124}, {"type": "node", "id": 8007279077, "lat": 35.6593896, "lon": 139.7006929}, {"type": "node", "id": 8007279078, "lat": 35.659366, "lon": 139.7006419}, {"type": "node", "id": 8007279079, "lat": 35.6593378, "lon": 139.7006172}, {"type": "node", "id": 10288326509, "lat": 35.6697365, "lon": 139.706195, "tags": {"name:en": "Galaxy Shop", "tourism": "attraction"}}, {"type": "node", "id": 10816244605, "lat": 35.666977, "lon": 139.7063131, "tags": {"addr:postcode": "150-0001", "name:en": "Cat Street", "tourism": "attraction", "wikidata": "Q11511093"}}, {"type": "node", "id": 10816259205, "lat": 35.6723225, "lon": 139.7098527, "tags": {"addr:postcode": "150-0001", "name:en": "Cat Street", "tourism": "attraction"}}, {"type": "node", "id": 11881045969, "lat": 35.6597122, "lon": 139.7005648}, {"type": "node", "id": 11991698170, "lat": 35.68812, "lon": 139.7009331, "tags": {"addr:postcode": "151-0051", "addr:street": "\u65b0\u5bbf\u99c5\u5357\u53e3", "name": "Suica \u30da\u30f3\u30ae\u30f3\u306e\u5e83\u5834", "opening_hours": "24/7", "tourism": "attraction"}}, {"type": "node", "id": 12056604669, "lat": 35.6739241, "lon": 139.7004303, "tags": {"name:en": "North Entrance Meiji Jingu Inner Garden", "tourism": "attraction"}}, {"type": "node", "id": 12244529908, "lat": 35.681978, "lon": 139.7097525}, {"type": "node", "id": 12244529909, "lat": 35.6819312, "lon": 139.7098065}, {"type": "node", "id": 12244529910, "lat": 35.6818593, "lon": 139.7099434}, {"type": "node", "id": 12244529911, "lat": 35.6818177, "lon": 139.7100486}, {"type": "node", "id": 12244529912, "lat": 35.6817852, "lon": 139.7101929}, {"type": "node", "id": 12244529913, "lat": 35.6817753, "lon": 139.7103493}, {"type": "node", "id": 12244529914, "lat": 35.6817701, "lon": 139.710638}, {"type": "node", "id": 12244529947, "lat": 35.6821997, "lon": 139.7108494}, {"type": "node", "id": 12244529948, "lat": 35.6822261, "lon": 139.710827}, {"type": "node", "id": 12244529949, "lat": 35.682565, "lon": 139.7104182}, {"type": "node", "id": 12244529950, "lat": 35.6827034, "lon": 139.7102497}, {"type": "node", "id": 12244529960, "lat": 35.6827412, "lon": 139.7102171}, {"type": "node", "id": 12244529961, "lat": 35.682751, "lon": 139.7102152}, {"type": "node", "id": 12244529974, "lat": 35.6827187, "lon": 139.71023}, {"type": "node", "id": 12244529979, "lat": 35.6827113, "lon": 139.7096357}, {"type": "node", "id": 12244529980, "lat": 35.6827291, "lon": 139.7096528}, {"type": "node", "id": 12244529981, "lat": 35.6827472, "lon": 139.709678}, {"type": "node", "id": 12244529982, "lat": 35.6827472, "lon": 139.7097106}, {"type": "node", "id": 12244529983, "lat": 35.6827382, "lon": 139.7097506}, {"type": "node", "id": 12244529995, "lat": 35.6826096, "lon": 139.7096221}, {"type": "node", "id": 12244529996, "lat": 35.6824394, "lon": 139.7095355}, {"type": "node", "id": 12244529997, "lat": 35.6823918, "lon": 139.7095271}, {"type": "node", "id": 12244529998, "lat": 35.6823343, "lon": 139.7095327}, {"type": "node", "id": 12244529999, "lat": 35.6822579, "lon": 139.709556}, {"type": "node", "id": 12244530000, "lat": 35.6821928, "lon": 139.709596}, {"type": "node", "id": 12244530001, "lat": 35.6821112, "lon": 139.7096752}, {"type": "node", "id": 12244530002, "lat": 35.682031, "lon": 139.7097236}, {"type": "node", "id": 12244544645, "lat": 35.6821237, "lon": 139.7108664}, {"type": "node", "id": 12244544646, "lat": 35.6821679, "lon": 139.7108614}, {"type": "node", "id": 12352271616, "lat": 35.6595265, "lon": 139.7008266}, {"type": "node", "id": 12352271617, "lat": 35.6593843, "lon": 139.7007953}, {"type": "node", "id": 12352271618, "lat": 35.6592794, "lon": 139.7005941}, {"type": "node", "id": 12352271619, "lat": 35.6594528, "lon": 139.700168}, {"type": "node", "id": 12352271620, "lat": 35.6596072, "lon": 139.7002}, {"type": "node", "id": 12352271621, "lat": 35.6597293, "lon": 139.7002985}, {"type": "node", "id": 12352271622, "lat": 35.659531, "lon": 139.7001842}, {"type": "node", "id": 12352271623, "lat": 35.6593305, "lon": 139.7003176}, {"type": "node", "id": 12352271624, "lat": 35.659285, "lon": 139.7005636}, {"type": "node", "id": 12352271625, "lat": 35.6597013, "lon": 139.7006456}, {"type": "node", "id": 12352271626, "lat": 35.6594637, "lon": 139.7008128}, {"type": "node", "id": 12352271627, "lat": 35.6597247, "lon": 139.7002294}, {"type": "node", "id": 12352271628, "lat": 35.6597623, "lon": 139.7002234}, {"type": "node", "id": 12352271636, "lat": 35.6596753, "lon": 139.7002862}, {"type": "node", "id": 12352271654, "lat": 35.6597131, "lon": 139.7003191}, {"type": "node", "id": 12352271658, "lat": 35.6596359, "lon": 139.7002979}, {"type": "node", "id": 12352271659, "lat": 35.6596059, "lon": 139.7002752}, {"type": "node", "id": 12747450632, "lat": 35.6818849, "lon": 139.7107922}, {"type": "node", "id": 12747450633, "lat": 35.6819762, "lon": 139.7108859}, {"type": "node", "id": 12747450634, "lat": 35.6827907, "lon": 139.7101613}, {"type": "node", "id": 12747450635, "lat": 35.6827866, "lon": 139.7100465}, {"type": "node", "id": 12747450636, "lat": 35.6827643, "lon": 139.7099949}, {"type": "node", "id": 12815749236, "lat": 35.6818451, "lon": 139.7107387}, {"type": "way", "id": 469908912, "nodes": [4641692417, 4484956591], "tags": {"height": "12", "man_made": "torii", "material": "wood", "name": "\u660e\u6cbb\u795e\u5bae \u5927\u9ce5\u5c45", "tourism": "attraction", "width": "17.1"}}, {"type": "way", "id": 553522499, "nodes": [4492209190, 5342859168, 5342859169, 5342859170, 4492209190], "tags": {"contact:tripadvisor": "13287787", "layer": "1", "man_made": "bridge", "name": "\u795e\u5bae\u6a4b", "name:en": "Jingu Bridge", "name:it": "Ponte Jingu", "name:ja-Hira": "\u3058\u3085\u3044\u3093\u3050\u3046\u3070\u3057", "name:ja-Latn": "Jing\u016b-bashi", "name:zh": "\u795e\u5bae\u6a4b", "start_date": "1920-09", "tourism": "attraction", "wikidata": "Q11589493", "wikimedia_commons": "Category:Jingu Bashi", "wikipedia": "en:Jing\u016bbashi"}}, {"type": "way", "id": 1335178864, "nodes": [3608568760, 12352271628, 2223657358, 12352271621, 12352271654, 2223657356, 2223657344, 2223657334, 2223657338, 2223657341, 2223657352, 2223657354, 11881045969, 12352271625, 3608568756, 3608568744, 3608568741, 3608568736, 3608568730, 3608568729, 3608568728, 3608568727, 3608568726, 3608568725, 12352271616, 12352271626, 12352271617, 3608568705, 8007279076, 8007279077, 1681663805, 2223657295, 8007279078, 1681663785, 8007279079, 3608568701, 12352271618, 12352271624, 12352271623, 1681663783, 3608568702, 3608568703, 3608568704, 3608568707, 3608568710, 3608568712, 3608568714, 3608568715, 12352271619, 12352271622, 12352271620, 3608568732, 12352271659, 3608568734, 3608568737, 3608568740, 12352271658, 3608568745, 12352271636, 3608568753, 12352271627, 3608568760], "tags": {"addr:city": "Shibuya, Tokyo", "alt_name:en": "Shibuya Scramble Crossing", "area": "yes", "bicycle": "yes", "fee": "no", "foot": "yes", "footway": "crossing", "highway": "pedestrian", "image": "https://commons.wikimedia.org/wiki/File:2019_Shibuya_Crossing_-_Shibuya_Scramble_Square_-_SHIBUYA_SKY_1.jpg", "level": "0", "lit": "yes", "motor_vehicle": "no", "name": "\u6e0b\u8c37\u99c5\u524d\u4ea4\u5dee\u70b9", "name:de": "Shibuya Crossing", "name:el": "\u0394\u03b9\u03b1\u03c3\u03c4\u03b1\u03cd\u03c1\u03c9\u03c3\u03b7 \u03a3\u03b9\u03bc\u03c0\u03bf\u03cd\u03b3\u03b9\u03b1", "name:en": "Shibuya Crossing", "name:es": "Shibuya Crossing", "name:eu": "Shibuyako bidegurutzea", "name:fa": "\u062a\u0642\u0627\u0637\u0639 \u0634\u06cc\u0628\u0648\u06cc\u0627", "name:fr": "Shibuya Crossing", "name:he": "\u05de\u05e2\u05d1\u05e8 \u05d4\u05d7\u05e6\u05d9\u05d9\u05d4 \u05e9\u05dc \u05e9\u05d9\u05d1\u05d5\u05d9\u05d4", "name:id": "Persimpangan Shibuya", "name:it": "Incrocio di Shibuya", "name:ja": "\u6e0b\u8c37\u30b9\u30af\u30e9\u30f3\u30d6\u30eb\u4ea4\u5dee\u70b9", "name:ko": "\uc2dc\ubd80\uc57c \uc2a4\ud06c\ub7a8\ube14 \uad50\ucc28\uc810", "name:ms": "Persimpangan Shibuya", "name:pt": "Cruzamento de Shibuya", "name:ru": "\u0421\u0438\u0431\u0443\u0439\u0441\u043a\u0438\u0439 \u0434\u0438\u0430\u0433\u043e\u043d\u0430\u043b\u044c\u043d\u044b\u0439 \u043f\u0435\u0448\u0435\u0445\u043e\u0434\u043d\u044b\u0439 \u043f\u0435\u0440\u0435\u0445\u043e\u0434", "name:th": "\u0e17\u0e32\u0e07\u0e21\u0e49\u0e32\u0e25\u0e32\u0e22\u0e0a\u0e34\u0e1a\u0e39\u0e22\u0e30", "name:zh": "\u6f80\u8c37\u8def\u53e3", "note": "Pedestrian scramble; people in practice do area-routing.Drawn to extent of yellow tactile markings.Marked as motor_vehicle=no to not allow area-routing for cars, only people/bicycles. Cars continue to use linear-routing along roads and restrictions.", "surface": "paved", "tourism": "attraction", "wikidata": "Q21083961", "wikimedia_commons": "Category:Shibuya Crossing", "wikipedia": "en:Shibuya Crossing"}}, {"type": "way", "id": 1376695886, "nodes": [12244529914, 12815749236, 12747450632, 12747450633, 12244544645, 12244544646, 12244529947, 12244529948, 12244529949, 12244529950, 12244529974, 12244529960, 12244529961, 12747450634, 12747450635, 12747450636, 1986321884, 1986321886, 12244529983, 12244529982, 12244529981, 12244529980, 12244529979, 12244529995, 12244529996, 12244529997, 12244529998, 12244529999, 12244530000, 12244530001, 12244530002, 12244529908, 12244529909, 12244529910, 12244529911, 12244529912, 12244529913, 12244529914], "tags": {"landuse": "forest", "name": "\u685c\u5712\u5730", "name:en": "Cherry Tree Area", "tourism": "attraction"}}]}